<?xml version="1.0" encoding="UTF-8"?>
<gpx version="1.1" creator="Activity Layers example" xmlns="http://www.topografix.com/GPX/1/1">
  <metadata><name>Demo lap course</name><time>2024-07-15T17:46:40Z</time></metadata>
  <trk><name>Demo lap course</name><trkseg>
    <trkpt lat="50.3356000" lon="6.9475000">
      <time>2024-07-15T17:46:40Z</time>
    </trkpt>
    <trkpt lat="50.3357765" lon="6.9479380">
      <time>2024-07-15T17:46:43Z</time>
    </trkpt>
    <trkpt lat="50.3359520" lon="6.9483652">
      <time>2024-07-15T17:46:46Z</time>
    </trkpt>
    <trkpt lat="50.3361253" lon="6.9487712">
      <time>2024-07-15T17:46:49Z</time>
    </trkpt>
    <trkpt lat="50.3362953" lon="6.9491458">
      <time>2024-07-15T17:46:52Z</time>
    </trkpt>
    <trkpt lat="50.3364610" lon="6.9494799">
      <time>2024-07-15T17:46:55Z</time>
    </trkpt>
    <trkpt lat="50.3366215" lon="6.9497652">
      <time>2024-07-15T17:46:58Z</time>
    </trkpt>
    <trkpt lat="50.3367756" lon="6.9499948">
      <time>2024-07-15T17:47:01Z</time>
    </trkpt>
    <trkpt lat="50.3369225" lon="6.9501630">
      <time>2024-07-15T17:47:04Z</time>
    </trkpt>
    <trkpt lat="50.3370613" lon="6.9502655">
      <time>2024-07-15T17:47:07Z</time>
    </trkpt>
    <trkpt lat="50.3371910" lon="6.9503000">
      <time>2024-07-15T17:47:10Z</time>
    </trkpt>
    <trkpt lat="50.3373109" lon="6.9502655">
      <time>2024-07-15T17:47:13Z</time>
    </trkpt>
    <trkpt lat="50.3374203" lon="6.9501630">
      <time>2024-07-15T17:47:16Z</time>
    </trkpt>
    <trkpt lat="50.3375184" lon="6.9499948">
      <time>2024-07-15T17:47:19Z</time>
    </trkpt>
    <trkpt lat="50.3376048" lon="6.9497652">
      <time>2024-07-15T17:47:22Z</time>
    </trkpt>
    <trkpt lat="50.3376787" lon="6.9494799">
      <time>2024-07-15T17:47:25Z</time>
    </trkpt>
    <trkpt lat="50.3377399" lon="6.9491458">
      <time>2024-07-15T17:47:28Z</time>
    </trkpt>
    <trkpt lat="50.3377878" lon="6.9487712">
      <time>2024-07-15T17:47:31Z</time>
    </trkpt>
    <trkpt lat="50.3378223" lon="6.9483652">
      <time>2024-07-15T17:47:34Z</time>
    </trkpt>
    <trkpt lat="50.3378431" lon="6.9479380">
      <time>2024-07-15T17:47:37Z</time>
    </trkpt>
    <trkpt lat="50.3378500" lon="6.9475000">
      <time>2024-07-15T17:47:40Z</time>
    </trkpt>
    <trkpt lat="50.3378431" lon="6.9470620">
      <time>2024-07-15T17:47:43Z</time>
    </trkpt>
    <trkpt lat="50.3378223" lon="6.9466348">
      <time>2024-07-15T17:47:46Z</time>
    </trkpt>
    <trkpt lat="50.3377878" lon="6.9462288">
      <time>2024-07-15T17:47:49Z</time>
    </trkpt>
    <trkpt lat="50.3377399" lon="6.9458542">
      <time>2024-07-15T17:47:52Z</time>
    </trkpt>
    <trkpt lat="50.3376787" lon="6.9455201">
      <time>2024-07-15T17:47:55Z</time>
    </trkpt>
    <trkpt lat="50.3376048" lon="6.9452348">
      <time>2024-07-15T17:47:58Z</time>
    </trkpt>
    <trkpt lat="50.3375184" lon="6.9450052">
      <time>2024-07-15T17:48:01Z</time>
    </trkpt>
    <trkpt lat="50.3374203" lon="6.9448370">
      <time>2024-07-15T17:48:04Z</time>
    </trkpt>
    <trkpt lat="50.3373109" lon="6.9447345">
      <time>2024-07-15T17:48:07Z</time>
    </trkpt>
    <trkpt lat="50.3371910" lon="6.9447000">
      <time>2024-07-15T17:48:10Z</time>
    </trkpt>
    <trkpt lat="50.3370613" lon="6.9447345">
      <time>2024-07-15T17:48:13Z</time>
    </trkpt>
    <trkpt lat="50.3369225" lon="6.9448370">
      <time>2024-07-15T17:48:16Z</time>
    </trkpt>
    <trkpt lat="50.3367756" lon="6.9450052">
      <time>2024-07-15T17:48:19Z</time>
    </trkpt>
    <trkpt lat="50.3366215" lon="6.9452348">
      <time>2024-07-15T17:48:22Z</time>
    </trkpt>
    <trkpt lat="50.3364610" lon="6.9455201">
      <time>2024-07-15T17:48:25Z</time>
    </trkpt>
    <trkpt lat="50.3362953" lon="6.9458542">
      <time>2024-07-15T17:48:28Z</time>
    </trkpt>
    <trkpt lat="50.3361253" lon="6.9462288">
      <time>2024-07-15T17:48:31Z</time>
    </trkpt>
    <trkpt lat="50.3359520" lon="6.9466348">
      <time>2024-07-15T17:48:34Z</time>
    </trkpt>
    <trkpt lat="50.3357765" lon="6.9470620">
      <time>2024-07-15T17:48:37Z</time>
    </trkpt>
    <trkpt lat="50.3356000" lon="6.9475000">
      <time>2024-07-15T17:48:40Z</time>
    </trkpt>
    <trkpt lat="50.3354235" lon="6.9479380">
      <time>2024-07-15T17:48:43Z</time>
    </trkpt>
    <trkpt lat="50.3352480" lon="6.9483652">
      <time>2024-07-15T17:48:46Z</time>
    </trkpt>
    <trkpt lat="50.3350747" lon="6.9487712">
      <time>2024-07-15T17:48:49Z</time>
    </trkpt>
    <trkpt lat="50.3349047" lon="6.9491458">
      <time>2024-07-15T17:48:52Z</time>
    </trkpt>
    <trkpt lat="50.3347390" lon="6.9494799">
      <time>2024-07-15T17:48:55Z</time>
    </trkpt>
    <trkpt lat="50.3345785" lon="6.9497652">
      <time>2024-07-15T17:48:58Z</time>
    </trkpt>
    <trkpt lat="50.3344244" lon="6.9499948">
      <time>2024-07-15T17:49:01Z</time>
    </trkpt>
    <trkpt lat="50.3342775" lon="6.9501630">
      <time>2024-07-15T17:49:04Z</time>
    </trkpt>
    <trkpt lat="50.3341387" lon="6.9502655">
      <time>2024-07-15T17:49:07Z</time>
    </trkpt>
    <trkpt lat="50.3340090" lon="6.9503000">
      <time>2024-07-15T17:49:10Z</time>
    </trkpt>
    <trkpt lat="50.3338891" lon="6.9502655">
      <time>2024-07-15T17:49:13Z</time>
    </trkpt>
    <trkpt lat="50.3337797" lon="6.9501630">
      <time>2024-07-15T17:49:16Z</time>
    </trkpt>
    <trkpt lat="50.3336816" lon="6.9499948">
      <time>2024-07-15T17:49:19Z</time>
    </trkpt>
    <trkpt lat="50.3335952" lon="6.9497652">
      <time>2024-07-15T17:49:22Z</time>
    </trkpt>
    <trkpt lat="50.3335213" lon="6.9494799">
      <time>2024-07-15T17:49:25Z</time>
    </trkpt>
    <trkpt lat="50.3334601" lon="6.9491458">
      <time>2024-07-15T17:49:28Z</time>
    </trkpt>
    <trkpt lat="50.3334122" lon="6.9487712">
      <time>2024-07-15T17:49:31Z</time>
    </trkpt>
    <trkpt lat="50.3333777" lon="6.9483652">
      <time>2024-07-15T17:49:34Z</time>
    </trkpt>
    <trkpt lat="50.3333569" lon="6.9479380">
      <time>2024-07-15T17:49:37Z</time>
    </trkpt>
    <trkpt lat="50.3333500" lon="6.9475000">
      <time>2024-07-15T17:49:40Z</time>
    </trkpt>
    <trkpt lat="50.3333569" lon="6.9470620">
      <time>2024-07-15T17:49:43Z</time>
    </trkpt>
    <trkpt lat="50.3333777" lon="6.9466348">
      <time>2024-07-15T17:49:46Z</time>
    </trkpt>
    <trkpt lat="50.3334122" lon="6.9462288">
      <time>2024-07-15T17:49:49Z</time>
    </trkpt>
    <trkpt lat="50.3334601" lon="6.9458542">
      <time>2024-07-15T17:49:52Z</time>
    </trkpt>
    <trkpt lat="50.3335213" lon="6.9455201">
      <time>2024-07-15T17:49:55Z</time>
    </trkpt>
    <trkpt lat="50.3335952" lon="6.9452348">
      <time>2024-07-15T17:49:58Z</time>
    </trkpt>
    <trkpt lat="50.3336816" lon="6.9450052">
      <time>2024-07-15T17:50:01Z</time>
    </trkpt>
    <trkpt lat="50.3337797" lon="6.9448370">
      <time>2024-07-15T17:50:04Z</time>
    </trkpt>
    <trkpt lat="50.3338891" lon="6.9447345">
      <time>2024-07-15T17:50:07Z</time>
    </trkpt>
    <trkpt lat="50.3340090" lon="6.9447000">
      <time>2024-07-15T17:50:10Z</time>
    </trkpt>
    <trkpt lat="50.3341387" lon="6.9447345">
      <time>2024-07-15T17:50:13Z</time>
    </trkpt>
    <trkpt lat="50.3342775" lon="6.9448370">
      <time>2024-07-15T17:50:16Z</time>
    </trkpt>
    <trkpt lat="50.3344244" lon="6.9450052">
      <time>2024-07-15T17:50:19Z</time>
    </trkpt>
    <trkpt lat="50.3345785" lon="6.9452348">
      <time>2024-07-15T17:50:22Z</time>
    </trkpt>
    <trkpt lat="50.3347390" lon="6.9455201">
      <time>2024-07-15T17:50:25Z</time>
    </trkpt>
    <trkpt lat="50.3349047" lon="6.9458542">
      <time>2024-07-15T17:50:28Z</time>
    </trkpt>
    <trkpt lat="50.3350747" lon="6.9462288">
      <time>2024-07-15T17:50:31Z</time>
    </trkpt>
    <trkpt lat="50.3352480" lon="6.9466348">
      <time>2024-07-15T17:50:34Z</time>
    </trkpt>
    <trkpt lat="50.3354235" lon="6.9470620">
      <time>2024-07-15T17:50:37Z</time>
    </trkpt>
    <trkpt lat="50.3356000" lon="6.9475000">
      <time>2024-07-15T17:50:40Z</time>
    </trkpt>
    <trkpt lat="50.3357765" lon="6.9479380">
      <time>2024-07-15T17:50:43Z</time>
    </trkpt>
    <trkpt lat="50.3359520" lon="6.9483652">
      <time>2024-07-15T17:50:46Z</time>
    </trkpt>
    <trkpt lat="50.3361253" lon="6.9487712">
      <time>2024-07-15T17:50:49Z</time>
    </trkpt>
    <trkpt lat="50.3362953" lon="6.9491458">
      <time>2024-07-15T17:50:52Z</time>
    </trkpt>
    <trkpt lat="50.3364610" lon="6.9494799">
      <time>2024-07-15T17:50:55Z</time>
    </trkpt>
    <trkpt lat="50.3366215" lon="6.9497652">
      <time>2024-07-15T17:50:58Z</time>
    </trkpt>
    <trkpt lat="50.3367756" lon="6.9499948">
      <time>2024-07-15T17:51:01Z</time>
    </trkpt>
    <trkpt lat="50.3369225" lon="6.9501630">
      <time>2024-07-15T17:51:04Z</time>
    </trkpt>
    <trkpt lat="50.3370613" lon="6.9502655">
      <time>2024-07-15T17:51:07Z</time>
    </trkpt>
    <trkpt lat="50.3371910" lon="6.9503000">
      <time>2024-07-15T17:51:10Z</time>
    </trkpt>
    <trkpt lat="50.3373109" lon="6.9502655">
      <time>2024-07-15T17:51:13Z</time>
    </trkpt>
    <trkpt lat="50.3374203" lon="6.9501630">
      <time>2024-07-15T17:51:16Z</time>
    </trkpt>
    <trkpt lat="50.3375184" lon="6.9499948">
      <time>2024-07-15T17:51:19Z</time>
    </trkpt>
    <trkpt lat="50.3376048" lon="6.9497652">
      <time>2024-07-15T17:51:22Z</time>
    </trkpt>
    <trkpt lat="50.3376787" lon="6.9494799">
      <time>2024-07-15T17:51:25Z</time>
    </trkpt>
    <trkpt lat="50.3377399" lon="6.9491458">
      <time>2024-07-15T17:51:28Z</time>
    </trkpt>
    <trkpt lat="50.3377878" lon="6.9487712">
      <time>2024-07-15T17:51:31Z</time>
    </trkpt>
    <trkpt lat="50.3378223" lon="6.9483652">
      <time>2024-07-15T17:51:34Z</time>
    </trkpt>
    <trkpt lat="50.3378431" lon="6.9479380">
      <time>2024-07-15T17:51:37Z</time>
    </trkpt>
    <trkpt lat="50.3378500" lon="6.9475000">
      <time>2024-07-15T17:51:40Z</time>
    </trkpt>
    <trkpt lat="50.3378431" lon="6.9470620">
      <time>2024-07-15T17:51:43Z</time>
    </trkpt>
    <trkpt lat="50.3378223" lon="6.9466348">
      <time>2024-07-15T17:51:46Z</time>
    </trkpt>
    <trkpt lat="50.3377878" lon="6.9462288">
      <time>2024-07-15T17:51:49Z</time>
    </trkpt>
    <trkpt lat="50.3377399" lon="6.9458542">
      <time>2024-07-15T17:51:52Z</time>
    </trkpt>
    <trkpt lat="50.3376787" lon="6.9455201">
      <time>2024-07-15T17:51:55Z</time>
    </trkpt>
    <trkpt lat="50.3376048" lon="6.9452348">
      <time>2024-07-15T17:51:58Z</time>
    </trkpt>
    <trkpt lat="50.3375184" lon="6.9450052">
      <time>2024-07-15T17:52:01Z</time>
    </trkpt>
    <trkpt lat="50.3374203" lon="6.9448370">
      <time>2024-07-15T17:52:04Z</time>
    </trkpt>
    <trkpt lat="50.3373109" lon="6.9447345">
      <time>2024-07-15T17:52:07Z</time>
    </trkpt>
    <trkpt lat="50.3371910" lon="6.9447000">
      <time>2024-07-15T17:52:10Z</time>
    </trkpt>
    <trkpt lat="50.3370613" lon="6.9447345">
      <time>2024-07-15T17:52:13Z</time>
    </trkpt>
    <trkpt lat="50.3369225" lon="6.9448370">
      <time>2024-07-15T17:52:16Z</time>
    </trkpt>
    <trkpt lat="50.3367756" lon="6.9450052">
      <time>2024-07-15T17:52:19Z</time>
    </trkpt>
    <trkpt lat="50.3366215" lon="6.9452348">
      <time>2024-07-15T17:52:22Z</time>
    </trkpt>
    <trkpt lat="50.3364610" lon="6.9455201">
      <time>2024-07-15T17:52:25Z</time>
    </trkpt>
    <trkpt lat="50.3362953" lon="6.9458542">
      <time>2024-07-15T17:52:28Z</time>
    </trkpt>
    <trkpt lat="50.3361253" lon="6.9462288">
      <time>2024-07-15T17:52:31Z</time>
    </trkpt>
    <trkpt lat="50.3359520" lon="6.9466348">
      <time>2024-07-15T17:52:34Z</time>
    </trkpt>
    <trkpt lat="50.3357765" lon="6.9470620">
      <time>2024-07-15T17:52:37Z</time>
    </trkpt>
    <trkpt lat="50.3356000" lon="6.9475000">
      <time>2024-07-15T17:52:40Z</time>
    </trkpt>
    <trkpt lat="50.3354235" lon="6.9479380">
      <time>2024-07-15T17:52:43Z</time>
    </trkpt>
    <trkpt lat="50.3352480" lon="6.9483652">
      <time>2024-07-15T17:52:46Z</time>
    </trkpt>
    <trkpt lat="50.3350747" lon="6.9487712">
      <time>2024-07-15T17:52:49Z</time>
    </trkpt>
    <trkpt lat="50.3349047" lon="6.9491458">
      <time>2024-07-15T17:52:52Z</time>
    </trkpt>
    <trkpt lat="50.3347390" lon="6.9494799">
      <time>2024-07-15T17:52:55Z</time>
    </trkpt>
    <trkpt lat="50.3345785" lon="6.9497652">
      <time>2024-07-15T17:52:58Z</time>
    </trkpt>
    <trkpt lat="50.3344244" lon="6.9499948">
      <time>2024-07-15T17:53:01Z</time>
    </trkpt>
    <trkpt lat="50.3342775" lon="6.9501630">
      <time>2024-07-15T17:53:04Z</time>
    </trkpt>
    <trkpt lat="50.3341387" lon="6.9502655">
      <time>2024-07-15T17:53:07Z</time>
    </trkpt>
    <trkpt lat="50.3340090" lon="6.9503000">
      <time>2024-07-15T17:53:10Z</time>
    </trkpt>
    <trkpt lat="50.3338891" lon="6.9502655">
      <time>2024-07-15T17:53:13Z</time>
    </trkpt>
    <trkpt lat="50.3337797" lon="6.9501630">
      <time>2024-07-15T17:53:16Z</time>
    </trkpt>
    <trkpt lat="50.3336816" lon="6.9499948">
      <time>2024-07-15T17:53:19Z</time>
    </trkpt>
    <trkpt lat="50.3335952" lon="6.9497652">
      <time>2024-07-15T17:53:22Z</time>
    </trkpt>
    <trkpt lat="50.3335213" lon="6.9494799">
      <time>2024-07-15T17:53:25Z</time>
    </trkpt>
    <trkpt lat="50.3334601" lon="6.9491458">
      <time>2024-07-15T17:53:28Z</time>
    </trkpt>
    <trkpt lat="50.3334122" lon="6.9487712">
      <time>2024-07-15T17:53:31Z</time>
    </trkpt>
    <trkpt lat="50.3333777" lon="6.9483652">
      <time>2024-07-15T17:53:34Z</time>
    </trkpt>
    <trkpt lat="50.3333569" lon="6.9479380">
      <time>2024-07-15T17:53:37Z</time>
    </trkpt>
    <trkpt lat="50.3333500" lon="6.9475000">
      <time>2024-07-15T17:53:40Z</time>
    </trkpt>
    <trkpt lat="50.3333569" lon="6.9470620">
      <time>2024-07-15T17:53:43Z</time>
    </trkpt>
    <trkpt lat="50.3333777" lon="6.9466348">
      <time>2024-07-15T17:53:46Z</time>
    </trkpt>
    <trkpt lat="50.3334122" lon="6.9462288">
      <time>2024-07-15T17:53:49Z</time>
    </trkpt>
    <trkpt lat="50.3334601" lon="6.9458542">
      <time>2024-07-15T17:53:52Z</time>
    </trkpt>
    <trkpt lat="50.3335213" lon="6.9455201">
      <time>2024-07-15T17:53:55Z</time>
    </trkpt>
    <trkpt lat="50.3335952" lon="6.9452348">
      <time>2024-07-15T17:53:58Z</time>
    </trkpt>
    <trkpt lat="50.3336816" lon="6.9450052">
      <time>2024-07-15T17:54:01Z</time>
    </trkpt>
    <trkpt lat="50.3337797" lon="6.9448370">
      <time>2024-07-15T17:54:04Z</time>
    </trkpt>
    <trkpt lat="50.3338891" lon="6.9447345">
      <time>2024-07-15T17:54:07Z</time>
    </trkpt>
    <trkpt lat="50.3340090" lon="6.9447000">
      <time>2024-07-15T17:54:10Z</time>
    </trkpt>
    <trkpt lat="50.3341387" lon="6.9447345">
      <time>2024-07-15T17:54:13Z</time>
    </trkpt>
    <trkpt lat="50.3342775" lon="6.9448370">
      <time>2024-07-15T17:54:16Z</time>
    </trkpt>
    <trkpt lat="50.3344244" lon="6.9450052">
      <time>2024-07-15T17:54:19Z</time>
    </trkpt>
    <trkpt lat="50.3345785" lon="6.9452348">
      <time>2024-07-15T17:54:22Z</time>
    </trkpt>
    <trkpt lat="50.3347390" lon="6.9455201">
      <time>2024-07-15T17:54:25Z</time>
    </trkpt>
    <trkpt lat="50.3349047" lon="6.9458542">
      <time>2024-07-15T17:54:28Z</time>
    </trkpt>
    <trkpt lat="50.3350747" lon="6.9462288">
      <time>2024-07-15T17:54:31Z</time>
    </trkpt>
    <trkpt lat="50.3352480" lon="6.9466348">
      <time>2024-07-15T17:54:34Z</time>
    </trkpt>
    <trkpt lat="50.3354235" lon="6.9470620">
      <time>2024-07-15T17:54:37Z</time>
    </trkpt>
    <trkpt lat="50.3356000" lon="6.9475000">
      <time>2024-07-15T17:54:40Z</time>
    </trkpt>
    <trkpt lat="50.3357765" lon="6.9479380">
      <time>2024-07-15T17:54:43Z</time>
    </trkpt>
    <trkpt lat="50.3359520" lon="6.9483652">
      <time>2024-07-15T17:54:46Z</time>
    </trkpt>
    <trkpt lat="50.3361253" lon="6.9487712">
      <time>2024-07-15T17:54:49Z</time>
    </trkpt>
    <trkpt lat="50.3362953" lon="6.9491458">
      <time>2024-07-15T17:54:52Z</time>
    </trkpt>
    <trkpt lat="50.3364610" lon="6.9494799">
      <time>2024-07-15T17:54:55Z</time>
    </trkpt>
    <trkpt lat="50.3366215" lon="6.9497652">
      <time>2024-07-15T17:54:58Z</time>
    </trkpt>
    <trkpt lat="50.3367756" lon="6.9499948">
      <time>2024-07-15T17:55:01Z</time>
    </trkpt>
    <trkpt lat="50.3369225" lon="6.9501630">
      <time>2024-07-15T17:55:04Z</time>
    </trkpt>
    <trkpt lat="50.3370613" lon="6.9502655">
      <time>2024-07-15T17:55:07Z</time>
    </trkpt>
    <trkpt lat="50.3371910" lon="6.9503000">
      <time>2024-07-15T17:55:10Z</time>
    </trkpt>
    <trkpt lat="50.3373109" lon="6.9502655">
      <time>2024-07-15T17:55:13Z</time>
    </trkpt>
    <trkpt lat="50.3374203" lon="6.9501630">
      <time>2024-07-15T17:55:16Z</time>
    </trkpt>
    <trkpt lat="50.3375184" lon="6.9499948">
      <time>2024-07-15T17:55:19Z</time>
    </trkpt>
    <trkpt lat="50.3376048" lon="6.9497652">
      <time>2024-07-15T17:55:22Z</time>
    </trkpt>
    <trkpt lat="50.3376787" lon="6.9494799">
      <time>2024-07-15T17:55:25Z</time>
    </trkpt>
    <trkpt lat="50.3377399" lon="6.9491458">
      <time>2024-07-15T17:55:28Z</time>
    </trkpt>
    <trkpt lat="50.3377878" lon="6.9487712">
      <time>2024-07-15T17:55:31Z</time>
    </trkpt>
    <trkpt lat="50.3378223" lon="6.9483652">
      <time>2024-07-15T17:55:34Z</time>
    </trkpt>
    <trkpt lat="50.3378431" lon="6.9479380">
      <time>2024-07-15T17:55:37Z</time>
    </trkpt>
    <trkpt lat="50.3378500" lon="6.9475000">
      <time>2024-07-15T17:55:40Z</time>
    </trkpt>
    <trkpt lat="50.3378431" lon="6.9470620">
      <time>2024-07-15T17:55:43Z</time>
    </trkpt>
    <trkpt lat="50.3378223" lon="6.9466348">
      <time>2024-07-15T17:55:46Z</time>
    </trkpt>
    <trkpt lat="50.3377878" lon="6.9462288">
      <time>2024-07-15T17:55:49Z</time>
    </trkpt>
    <trkpt lat="50.3377399" lon="6.9458542">
      <time>2024-07-15T17:55:52Z</time>
    </trkpt>
    <trkpt lat="50.3376787" lon="6.9455201">
      <time>2024-07-15T17:55:55Z</time>
    </trkpt>
    <trkpt lat="50.3376048" lon="6.9452348">
      <time>2024-07-15T17:55:58Z</time>
    </trkpt>
    <trkpt lat="50.3375184" lon="6.9450052">
      <time>2024-07-15T17:56:01Z</time>
    </trkpt>
    <trkpt lat="50.3374203" lon="6.9448370">
      <time>2024-07-15T17:56:04Z</time>
    </trkpt>
    <trkpt lat="50.3373109" lon="6.9447345">
      <time>2024-07-15T17:56:07Z</time>
    </trkpt>
    <trkpt lat="50.3371910" lon="6.9447000">
      <time>2024-07-15T17:56:10Z</time>
    </trkpt>
    <trkpt lat="50.3370613" lon="6.9447345">
      <time>2024-07-15T17:56:13Z</time>
    </trkpt>
    <trkpt lat="50.3369225" lon="6.9448370">
      <time>2024-07-15T17:56:16Z</time>
    </trkpt>
    <trkpt lat="50.3367756" lon="6.9450052">
      <time>2024-07-15T17:56:19Z</time>
    </trkpt>
    <trkpt lat="50.3366215" lon="6.9452348">
      <time>2024-07-15T17:56:22Z</time>
    </trkpt>
    <trkpt lat="50.3364610" lon="6.9455201">
      <time>2024-07-15T17:56:25Z</time>
    </trkpt>
    <trkpt lat="50.3362953" lon="6.9458542">
      <time>2024-07-15T17:56:28Z</time>
    </trkpt>
    <trkpt lat="50.3361253" lon="6.9462288">
      <time>2024-07-15T17:56:31Z</time>
    </trkpt>
    <trkpt lat="50.3359520" lon="6.9466348">
      <time>2024-07-15T17:56:34Z</time>
    </trkpt>
    <trkpt lat="50.3357765" lon="6.9470620">
      <time>2024-07-15T17:56:37Z</time>
    </trkpt>
    <trkpt lat="50.3356000" lon="6.9475000">
      <time>2024-07-15T17:56:40Z</time>
    </trkpt>
    <trkpt lat="50.3354235" lon="6.9479380">
      <time>2024-07-15T17:56:43Z</time>
    </trkpt>
    <trkpt lat="50.3352480" lon="6.9483652">
      <time>2024-07-15T17:56:46Z</time>
    </trkpt>
    <trkpt lat="50.3350747" lon="6.9487712">
      <time>2024-07-15T17:56:49Z</time>
    </trkpt>
    <trkpt lat="50.3349047" lon="6.9491458">
      <time>2024-07-15T17:56:52Z</time>
    </trkpt>
    <trkpt lat="50.3347390" lon="6.9494799">
      <time>2024-07-15T17:56:55Z</time>
    </trkpt>
    <trkpt lat="50.3345785" lon="6.9497652">
      <time>2024-07-15T17:56:58Z</time>
    </trkpt>
    <trkpt lat="50.3344244" lon="6.9499948">
      <time>2024-07-15T17:57:01Z</time>
    </trkpt>
    <trkpt lat="50.3342775" lon="6.9501630">
      <time>2024-07-15T17:57:04Z</time>
    </trkpt>
    <trkpt lat="50.3341387" lon="6.9502655">
      <time>2024-07-15T17:57:07Z</time>
    </trkpt>
    <trkpt lat="50.3340090" lon="6.9503000">
      <time>2024-07-15T17:57:10Z</time>
    </trkpt>
    <trkpt lat="50.3338891" lon="6.9502655">
      <time>2024-07-15T17:57:13Z</time>
    </trkpt>
    <trkpt lat="50.3337797" lon="6.9501630">
      <time>2024-07-15T17:57:16Z</time>
    </trkpt>
    <trkpt lat="50.3336816" lon="6.9499948">
      <time>2024-07-15T17:57:19Z</time>
    </trkpt>
    <trkpt lat="50.3335952" lon="6.9497652">
      <time>2024-07-15T17:57:22Z</time>
    </trkpt>
    <trkpt lat="50.3335213" lon="6.9494799">
      <time>2024-07-15T17:57:25Z</time>
    </trkpt>
    <trkpt lat="50.3334601" lon="6.9491458">
      <time>2024-07-15T17:57:28Z</time>
    </trkpt>
    <trkpt lat="50.3334122" lon="6.9487712">
      <time>2024-07-15T17:57:31Z</time>
    </trkpt>
    <trkpt lat="50.3333777" lon="6.9483652">
      <time>2024-07-15T17:57:34Z</time>
    </trkpt>
    <trkpt lat="50.3333569" lon="6.9479380">
      <time>2024-07-15T17:57:37Z</time>
    </trkpt>
    <trkpt lat="50.3333500" lon="6.9475000">
      <time>2024-07-15T17:57:40Z</time>
    </trkpt>
    <trkpt lat="50.3333569" lon="6.9470620">
      <time>2024-07-15T17:57:43Z</time>
    </trkpt>
    <trkpt lat="50.3333777" lon="6.9466348">
      <time>2024-07-15T17:57:46Z</time>
    </trkpt>
    <trkpt lat="50.3334122" lon="6.9462288">
      <time>2024-07-15T17:57:49Z</time>
    </trkpt>
    <trkpt lat="50.3334601" lon="6.9458542">
      <time>2024-07-15T17:57:52Z</time>
    </trkpt>
    <trkpt lat="50.3335213" lon="6.9455201">
      <time>2024-07-15T17:57:55Z</time>
    </trkpt>
    <trkpt lat="50.3335952" lon="6.9452348">
      <time>2024-07-15T17:57:58Z</time>
    </trkpt>
    <trkpt lat="50.3336816" lon="6.9450052">
      <time>2024-07-15T17:58:01Z</time>
    </trkpt>
    <trkpt lat="50.3337797" lon="6.9448370">
      <time>2024-07-15T17:58:04Z</time>
    </trkpt>
    <trkpt lat="50.3338891" lon="6.9447345">
      <time>2024-07-15T17:58:07Z</time>
    </trkpt>
    <trkpt lat="50.3340090" lon="6.9447000">
      <time>2024-07-15T17:58:10Z</time>
    </trkpt>
    <trkpt lat="50.3341387" lon="6.9447345">
      <time>2024-07-15T17:58:13Z</time>
    </trkpt>
    <trkpt lat="50.3342775" lon="6.9448370">
      <time>2024-07-15T17:58:16Z</time>
    </trkpt>
    <trkpt lat="50.3344244" lon="6.9450052">
      <time>2024-07-15T17:58:19Z</time>
    </trkpt>
    <trkpt lat="50.3345785" lon="6.9452348">
      <time>2024-07-15T17:58:22Z</time>
    </trkpt>
    <trkpt lat="50.3347390" lon="6.9455201">
      <time>2024-07-15T17:58:25Z</time>
    </trkpt>
    <trkpt lat="50.3349047" lon="6.9458542">
      <time>2024-07-15T17:58:28Z</time>
    </trkpt>
    <trkpt lat="50.3350747" lon="6.9462288">
      <time>2024-07-15T17:58:31Z</time>
    </trkpt>
    <trkpt lat="50.3352480" lon="6.9466348">
      <time>2024-07-15T17:58:34Z</time>
    </trkpt>
    <trkpt lat="50.3354235" lon="6.9470620">
      <time>2024-07-15T17:58:37Z</time>
    </trkpt>
    <trkpt lat="50.3356000" lon="6.9475000">
      <time>2024-07-15T17:58:40Z</time>
    </trkpt>
  </trkseg></trk>
</gpx>
